EXCITE                  
1 43819U 18099BP  26068.69809098  .00002813  00000+0  19631-3 0  9999
2 43819  97.4107 111.3606 0017626 337.4818  22.5634 15.06036758396774
STARLINK-5581           
1 55373U 23013AU  26068.39880008  .00001178  00000+0  10228-3 0  9992
2 55373  43.0042 315.0685 0001059 243.2960 116.7774 15.02526345171518
